H1 CPF 01  gfz 2021 11 26 13  8302 tandemx   
H2 1003001  6202 36605    2021 11 26 12 59 42 2021 12 01 00 00 42   120 1 1  0 0 0
H9
10 0 59544  46782.000000  0    -666924.652    966112.951  -6794568.228
10 0 59544  46902.000000  0    -405567.151   1831772.440  -6635043.175
10 0 59544  47022.000000  0    -122351.729   2660940.082  -6359774.844
10 0 59544  47142.000000  0     177049.381   3438894.352  -5973502.185
10 0 59544  47262.000000  0     486428.045   4151878.022  -5482888.015
10 0 59544  47382.000000  0     799163.543   4787341.543  -4896414.383
10 0 59544  47502.000000  0    1108358.292   5334168.996  -4224248.013
10 0 59544  47622.000000  0    1406984.080   5782881.160  -3478074.045
10 0 59544  47742.000000  0    1688035.342   6125810.126  -2670900.970
10 0 59544  47862.000000  0    1944686.373   6357242.673  -1816839.083
10 0 59544  47982.000000  0    2170449.075   6473527.816   -930854.572
10 0 59544  48102.000000  0    2359327.049   6473143.932    -28503.751
10 0 59544  48222.000000  0    2505961.653   6356723.316    874346.149
10 0 59544  48342.000000  0    2605766.410   6127033.652   1761803.353
10 0 59544  48462.000000  0    2655046.273   5788916.873   2618239.417
10 0 59544  48582.000000  0    2651099.016   5349186.904   3428572.334
10 0 59544  48702.000000  0    2592296.197   4816488.442   4178539.128
10 0 59544  48822.000000  0    2478140.822   4201120.555   4854953.074
10 0 59544  48942.000000  0    2309298.758   3514826.182   5445937.276
10 0 59544  49062.000000  0    2087606.861   2770559.771   5941128.731
10 0 59544  49182.000000  0    1816057.937   1982237.214   6331855.940
10 0 59544  49302.000000  0    1498760.536   1164470.166   6611286.213
10 0 59544  49422.000000  0    1140875.441    332291.468   6774538.104
10 0 59544  49542.000000  0     748530.971   -499120.610   6818760.628
10 0 59544  49662.000000  0     328717.846  -1314718.549   6743181.754
10 0 59544  49782.000000  0    -110835.633  -2099858.226   6549121.143
10 0 59544  49902.000000  0    -561805.943  -2840562.027   6239968.239
10 0 59544  50022.000000  0   -1015430.726  -3523768.682   5821124.925
10 0 59544  50142.000000  0   -1462675.995  -4137564.253   5299915.776
10 0 59544  50262.000000  0   -1894414.605  -4671393.971   4685468.538
10 0 59544  50382.000000  0   -2301613.080  -5116251.789   3988561.546
10 0 59544  50502.000000  0   -2675521.624  -5464841.889   3221437.928
10 0 59544  50622.000000  0   -3007861.736  -5711705.738   2397589.991
10 0 59544  50742.000000  0   -3291007.642  -5853313.302   1531520.067
10 0 59544  50862.000000  0   -3518157.781  -5888116.973    638480.761
10 0 59544  50982.000000  0   -3683491.765  -5816565.712   -265800.547
10 0 59544  51102.000000  0   -3782308.795  -5641079.186  -1165407.179
10 0 59544  51222.000000  0   -3811143.649  -5365981.442  -2044522.753
10 0 59544  51342.000000  0   -3767857.260  -4997395.862  -2887717.431
10 0 59544  51462.000000  0   -3651699.480  -4543104.727  -3680224.346
10 0 59544  51582.000000  0   -3463342.674  -4012378.124  -4408199.724
10 0 59544  51702.000000  0   -3204886.687  -3415777.754  -5058962.211
10 0 59544  51822.000000  0   -2879835.561  -2764940.022  -5621207.977
10 0 59544  51942.000000  0   -2493047.210  -2072344.014  -6085197.977
10 0 59544  52062.000000  0   -2050657.222  -1351069.701  -6442916.600
10 0 59544  52182.000000  0   -1559977.862   -614550.308  -6688198.765
10 0 59544  52302.000000  0   -1029376.008    123675.369  -6816824.189
10 0 59544  52422.000000  0    -468132.399    850206.022  -6826581.324
10 0 59544  52542.000000  0     113717.578   1552014.818  -6717301.345
10 0 59544  52662.000000  0     705557.698   2216676.442  -6490861.064
10 0 59544  52782.000000  0    1296380.238   2832583.067  -6151156.425
10 0 59544  52902.000000  0    1874986.643   3389145.203  -5704042.164
10 0 59544  53022.000000  0    2430195.883   3876973.916  -5157240.416
10 0 59544  53142.000000  0    2951058.219   4288041.906  -4520218.962
10 0 59544  53262.000000  0    3427070.760   4615821.975  -3804038.573
10 0 59544  53382.000000  0    3848390.577   4855398.396  -3021170.232
10 0 59544  53502.000000  0    4206041.523   5003548.180  -2185283.964
10 0 59544  53622.000000  0    4492107.680   5058789.196  -1311012.578
10 0 59544  53742.000000  0    4699910.554   5021395.795   -413694.855
10 0 59544  53862.000000  0    4824164.302   4893377.553    490899.144
10 0 59544  53982.000000  0    4861102.725   4678422.515   1386851.849
10 0 59544  54102.000000  0    4808577.881   4381808.479   2258385.345
10 0 59544  54222.000000  0    4666127.585   4010281.568   3090148.909
10 0 59544  54342.000000  0    4435006.244   3571904.485   3867498.115
10 0 59544  54462.000000  0    4118180.118   3075879.913   4576757.734
10 0 59544  54582.000000  0    3720289.760   2532354.686   5205464.334
10 0 59544  54702.000000  0    3247576.910   1952207.801   5742586.369
10 0 59544  54822.000000  0    2707779.921   1346829.149   6178713.018
10 0 59544  54942.000000  0    2110002.283    727892.688   6506213.256
10 0 59544  55062.000000  0    1464555.241    107130.568   6719362.295
10 0 59544  55182.000000  0     782777.565   -503887.833   6814437.330
10 0 59544  55302.000000  0      76834.849  -1093971.865   6789779.377
10 0 59544  55422.000000  0    -640497.946  -1652514.291   6645819.701
10 0 59544  55542.000000  0   -1356067.458  -2169681.986   6385071.894
10 0 59544  55662.000000  0   -2056581.401  -2636588.713   6012089.213
10 0 59544  55782.000000  0   -2728853.420  -3045448.406   5533391.590
10 0 59544  55902.000000  0   -3360053.804  -3389709.037   4957360.007
10 0 59544  56022.000000  0   -3937959.509  -3664161.390   4294094.347
10 0 59544  56142.000000  0   -4451195.069  -3865020.599   3555239.656
10 0 59544  56262.000000  0   -4889461.302  -3989979.675   2753784.346
10 0 59544  56382.000000  0   -5243747.949  -4038234.235   1903832.580
10 0 59544  56502.000000  0   -5506524.275  -4010476.599   1020352.082
10 0 59544  56622.000000  0   -5671901.616  -3908858.182    118904.223
10 0 59544  56742.000000  0   -5735764.461  -3736922.076   -784638.086
10 0 59544  56862.000000  0   -5695866.313  -3499507.195  -1674379.616
10 0 59544  56982.000000  0   -5551886.085  -3202625.227  -2534692.021
10 0 59544  57102.000000  0   -5305445.227  -2853315.427  -3350494.155
10 0 59544  57222.000000  0   -4960086.385  -2459481.327  -4107519.441
10 0 59544  57342.000000  0   -4521214.743  -2029713.346  -4792564.632
10 0 59544  57462.000000  0   -3996003.702  -1573102.429  -5393716.074
10 0 59544  57582.000000  0   -3393267.804  -1099048.309  -5900549.589
10 0 59544  57702.000000  0   -2723306.617   -617067.124  -6304300.760
10 0 59544  57822.000000  0   -1997723.354   -136602.811  -6598005.048
10 0 59544  57942.000000  0   -1229221.049    333154.019  -6776606.110
10 0 59544  58062.000000  0    -431382.224    783436.598  -6837032.463
10 0 59544  58182.000000  0     381566.028   1206061.441  -6778244.358
10 0 59544  58302.000000  0    1194998.384   1593572.313  -6601250.330
10 0 59544  58422.000000  0    1994148.963   1939369.426  -6309093.936
10 0 59544  58542.000000  0    2764374.197   2237820.851  -5906806.780
10 0 59544  58662.000000  0    3491417.658   2484354.057  -5401329.932
10 0 59544  58782.000000  0    4161671.628   2675526.593  -4801405.452
10 0 59544  58902.000000  0    4762434.663   2809075.564  -4117437.250
10 0 59544  59022.000000  0    5282157.893   2883943.523  -3361320.031
10 0 59544  59142.000000  0    5710673.738   2900280.253  -2546240.314
10 0 59544  59262.000000  0    6039405.127   2859421.095  -1686451.817
10 0 59544  59382.000000  0    6261546.563   2763839.420   -797025.606
10 0 59544  59502.000000  0    6372212.889   2617075.571    106416.943
10 0 59544  59622.000000  0    6368550.874   2423642.345   1007985.672
10 0 59544  59742.000000  0    6249810.199   2188910.270   1891807.621
10 0 59544  59862.000000  0    6017374.585   1918976.938   2742315.470
10 0 59544  59982.000000  0    5674747.920   1620520.478   3544530.810
10 0 59544  60102.000000  0    5227497.582   1300643.142   4284334.994
10 0 59544  60222.000000  0    4683155.520    966708.225   4948720.964
10 0 59544  60342.000000  0    4051083.427    626175.695   5526022.143
10 0 59544  60462.000000  0    3342302.000    286438.464   6006116.411
10 0 59544  60582.000000  0    2569289.060    -45334.850   6380597.806
10 0 59544  60702.000000  0    1745754.697   -362347.536   6642917.080
10 0 59544  60822.000000  0     886394.710   -658311.605   6788491.568
10 0 59544  60942.000000  0       6625.309   -927571.262   6814780.727
10 0 59544  61062.000000  0    -877693.822  -1165209.985   6721326.605
10 0 59544  61182.000000  0   -1750544.579  -1367140.419   6509760.500
10 0 59544  61302.000000  0   -2596038.876  -1530174.391   6183775.198
10 0 59544  61422.000000  0   -3398706.250  -1652072.492   5749066.028
10 0 59544  61542.000000  0   -4143780.538  -1731574.335   5213239.309
10 0 59544  61662.000000  0   -4817477.158  -1768408.169   4585684.671
10 0 59544  61782.000000  0   -5407255.435  -1763278.415   3877414.796
10 0 59544  61902.000000  0   -5902059.638  -1717831.062   3100874.611
10 0 59544  62022.000000  0   -6292534.630  -1634598.504   2269724.538
10 0 59544  62142.000000  0   -6571213.496  -1516925.631   1398599.356
10 0 59544  62262.000000  0   -6732668.864  -1368877.368    502843.788
10 0 59544  62382.000000  0   -6773622.808  -1195129.819   -401765.657
10 0 59544  62502.000000  0   -6693013.868  -1000848.273  -1299307.732
10 0 59544  62622.000000  0   -6492018.793   -791555.364  -2174005.503
10 0 59544  62742.000000  0   -6174029.778   -572993.287  -3010510.271
10 0 59544  62862.000000  0   -5744588.181   -350983.719  -3794176.424
10 0 59544  62982.000000  0   -5211275.285   -131287.037  -4511319.628
10 0 59544  63102.000000  0   -4583565.168     80534.081  -5149452.848
10 0 59544  63222.000000  0   -3872644.428    279243.277  -5697497.838
99
